STARLINK-2540           
1 48290C 21036Q   21354.48402557  .00002817  00000-0  18868-3 0  3542
2 48290  53.0528 155.8823 0002206  90.3780  29.4074 15.06413768    15
STARLINK-2555           
1 48291C 21036R   21354.48735530  .00002817  00000-0  18862-3 0  3547
2 48291  53.0529 155.8593 0002219  85.3265  72.5144 15.06415589    17
STARLINK-2542           
1 48292C 21036S   21354.48246331  .00002907  00000-0  19475-3 0  3545
2 48292  53.0528 155.8776 0002338  86.7392  69.7088 15.06400679    17
STARLINK-2550           
1 48293C 21036T   21354.47746644  .00002996  00000-0  20073-3 0  3541
2 48293  53.0526 155.8971 0002385  91.0075  53.2508 15.06399168    17
STARLINK-2533           
1 48294C 21036U   21354.49860983  .00001824  00000-0  12221-3 0  3542
2 48294  53.0525 155.8166 0002066  84.3692 194.6007 15.06398684    15
STARLINK-2535           
1 48295C 21036V   21354.47239017  .00002221  00000-0  14884-3 0  3548
2 48295  53.0504 155.9256 0002272  92.9858  63.7766 15.06394216    17
STARLINK-2546           
1 48296C 21036W   21354.49114412 -.00020372  00000-0 -13657-2 0  3547
2 48296  53.0521 155.8429 0002187  95.3071 183.2104 15.06397710    13
STARLINK-2544           
1 48297C 21036X   21354.46252795  .00001388  00000-0  93011-4 0  3540
2 48297  53.0513 155.9725 0002395  86.4728  56.7798 15.06393342    16
STARLINK-2559           
1 48298C 21036Y   21354.50294326 -.00013979  00000-0 -93657-3 0  3548
2 48298  53.0518 155.7911 0002073  94.2924 288.2264 15.06413249    14
STARLINK-2557           
1 48299C 21036Z   21354.49932582 -.00000491  00000-0 -32893-4 0  3541
2 48299  53.0552 155.8098 0002078  91.5225 291.3576 15.06407791    15
STARLINK-2538           
1 48300C 21036AA  21354.50276892  .00001737  00000-0  11633-3 0  3541
2 48300  53.0541 165.7969 0002536  86.1207   0.3515 15.06405644    18
STARLINK-2537           
1 48301C 21036AB  21354.49947971  .00001731  00000-0  11593-3 0  3542
2 48301  53.0533 165.7905 0002499  89.7229 358.9229 15.06401607    10
STARLINK-2556           
1 48302C 21036AC  21354.50105515  .00001675  00000-0  11217-3 0  3545
2 48302  53.0534 165.7936 0002906  84.3846  32.7321 15.06406759    18
STARLINK-2530           
1 48303C 21036AD  21354.50211837  .00001561  00000-0  10457-3 0  3540
2 48303  53.0533 165.7766 0002461  89.2040  53.7678 15.06409528    10
STARLINK-2524           
1 48304C 21036AE  21354.50104101  .00001237  00000-0  82893-4 0  3540
2 48304  53.0524 165.7939 0002819  86.5860  70.5593 15.06400710    17
STARLINK-2519           
1 48305C 21036AF  21354.49463657  .00001068  00000-0  71515-4 0  3544
2 48305  53.0520 165.8150 0002232  86.9534  55.4323 15.06408153    13
STARLINK-2523           
1 48306C 21036AG  21354.49117179  .00000673  00000-0  45094-4 0  3544
2 48306  53.0530 165.8457 0002343  91.7999  51.8001 15.06400092    14
STARLINK-2528           
1 48307C 21036AH  21354.50260716 -.00000216  00000-0 -14440-4 0  3549
2 48307  53.0523 165.7818 0002255  90.7433 134.8968 15.06405496    18
STARLINK-2532           
1 48308C 21036AJ  21354.49843633 -.00000391  00000-0 -26191-4 0  3543
2 48308  53.0530 165.8096 0002470  90.7854 132.1864 15.06407452    12
STARLINK-2517           
1 48309C 21036AK  21354.50417404 -.00000903  00000-0 -60477-4 0  3543
2 48309  53.0517 165.7896 0002685  94.0900 180.0381 15.06407408    19
STARLINK-2536           
1 48310C 21036AL  21354.50000588 -.00011561  00000-0 -77460-3 0  3547
2 48310  53.0525 165.7896 0002468  89.6793 181.8897 15.06410166    15
STARLINK-2534           
1 48311C 21036AM  21354.49635757 -.00000361  00000-0 -24205-4 0  3544
2 48311  53.0536 165.8226 0002815  88.9298 182.7992 15.06402866    18
STARLINK-2061           
1 48312C 21036AN  21354.51337501 -.00000957  00000-0 -64101-4 0  3544
2 48312  53.0522 165.7446 0002462  87.9688 296.1379 15.06400624    16
STARLINK-2541           
1 48313C 21036AP  21354.48819745  .00000793  00000-0  53143-4 0  3546
2 48313  53.0510 165.8586 0002525  84.3065 183.0731 15.06402894    17
STARLINK-2549           
1 48314C 21036AQ  21354.48437784 -.00014678  00000-0 -98340-3 0  3542
2 48314  53.0521 165.8799 0002577  87.1424 179.6282 15.06413579    17
STARLINK-2506           
1 48315C 21036AR  21354.50278425 -.00012734  00000-0 -85313-3 0  3548
2 48315  53.0533 165.7960 0002616  90.5731 296.0649 15.06412054    11
STARLINK-2507           
1 48316C 21036AS  21354.49913412  .00001157  00000-0  77500-4 0  3544
2 48316  53.0531 165.8151 0002367  88.1957 298.6608 15.06396792    12
STARLINK-2513           
1 48317C 21036AT  21354.50035882  .00001565  00000-0  10481-3 0  3540
2 48317  53.0525 165.8044 0002666  86.0293 327.4096 15.06412945    10
STARLINK-2509           
1 48318C 21036AU  21354.49669465  .00000153  00000-0  10242-4 0  3547
2 48318  53.0526 175.8046 0002622  82.7411 355.8104 15.06396705    12
STARLINK-2512           
1 48319C 21036AV  21354.49357463  .00000251  00000-0  16804-4 0  3549
2 48319  53.0508 175.8216 0002734  85.7773 355.8854 15.06401079    13
STARLINK-2029           
1 48320C 21036AW  21354.51530140 -.00000581  00000-0 -38940-4 0  3542
2 48320  53.0537 175.7172 0002603  83.7048 135.8623 15.06394694    19
STARLINK-2457           
1 48321C 21036AX  21354.49725071  .00000597  00000-0  40026-4 0  3542
2 48321  53.0523 175.8019 0002718  85.2297  56.3652 15.06398177    15
STARLINK-2477           
1 48322C 21036AY  21354.49343649  .00001139  00000-0  76323-4 0  3542
2 48322  53.0524 175.8161 0002467  86.8411  54.0086 15.06398479    12
STARLINK-2515           
1 48323C 21036AZ  21354.50417399 -.00019106  00000-0 -12797-2 0  3547
2 48323  53.0533 175.7833 0002379  86.0074 133.1711 15.06427418    17
STARLINK-2527           
1 48324C 21036BA  21354.50038576  .00001612  00000-0  10798-3 0  3545
2 48324  53.0525 175.8085 0002662  88.5021 130.1029 15.06400164    11
STARLINK-2495           
1 48325C 21036BB  21354.49672387  .00002255  00000-0  15109-3 0  3543
2 48325  53.0538 175.8253 0002614  82.5517 136.1964 15.06394862    15
STARLINK-2498           
1 48326C 21036BC  21354.50138253 -.00013674  00000-0 -91604-3 0  3548
2 48326  53.0525 175.7824 0003376  85.5373 178.4902 15.06413065    12
STARLINK-2502           
1 48327C 21036BD  21354.49773631  .00002578  00000-0  17271-3 0  3549
2 48327  53.0522 175.7967 0002582  85.1476 179.0623 15.06399811    15
STARLINK-2504           
1 48328C 21036BE  21354.48558828  .00002704  00000-0  18123-3 0  3546
2 48328  53.0522 175.8545 0002302  84.2430 134.1201 15.06389701    10
STARLINK-2510           
1 48329C 21036BF  21354.48994589  .00002752  00000-0  18436-3 0  3545
2 48329  53.0525 175.8421 0002500  85.5933 176.3410 15.06397620    18
STARLINK-2501           
1 48330C 21036BG  21354.47829486  .00003105  00000-0  20802-3 0  3542
2 48330  53.0528 175.9024 0002853  88.2639 130.4575 15.06398035    11
STARLINK-2514           
1 48331C 21036BH  21354.47447319  .00002745  00000-0  18395-3 0  3547
2 48331  53.0524 175.9120 0002509  86.8552 131.2148 15.06387051    12
STARLINK-2511           
1 48332C 21036BJ  21354.48006357  .00002613  00000-0  17500-3 0  3543
2 48332  53.0500 175.9014 0002415  87.5107 165.9556 15.06406977    15
STARLINK-2518           
1 48333C 21036BK  21354.47446796  .00002043  00000-0  13691-3 0  3542
2 48333  53.0502 175.9182 0002601  84.2787 173.6858 15.06395536    18
STARLINK-2470           
1 48334C 21036BL  21354.50453682  .00000336  00000-0  22520-4 0  3544
2 48334  53.0505 175.7838 0002267  88.3590 352.7929 15.06399299    12
STARLINK-2441           
1 48335C 21036BM  21354.50120567  .00000103  00000-0  68785-5 0  3544
2 48335  53.0517 175.8015 0002504  87.7260 355.3526 15.06391013    13
STARLINK-2613           
1 48353C 21038A   21354.48124384  .00011475  00000-0  76869-3 0  3548
2 48353  53.0543  75.8912 0001457  90.3810 214.4645 15.06394761    14
STARLINK-2674           
1 48354C 21038B   21354.48212262  .00014626  00000-0  97984-3 0  3544
2 48354  53.0549  75.8776 0001286  82.5060 247.1129 15.06389722    10
STARLINK-2635           
1 48355C 21038C   21354.49703183  .00013337  00000-0  89340-3 0  3548
2 48355  53.0555  75.8213 0001271  89.9499 340.5555 15.06393155    11
STARLINK-2637           
1 48356C 21038D   21354.49338561  .00006102  00000-0  40877-3 0  3547
2 48356  53.0564  75.8251 0001312  96.8830 333.8291 15.06400119    17
STARLINK-2636           
1 48357C 21038E   21354.49914181 -.00009707  00000-0 -65002-3 0  3549
2 48357  53.0550  75.8003 0001356  89.0758  32.8550 15.06426996    14
STARLINK-2624           
1 48358C 21038F   21354.49560391  .00010951  00000-0  73365-3 0  3542
2 48358  53.0540  75.8128 0001195  92.5225  30.2288 15.06393532    10
STARLINK-2628           
1 48359C 21038G   21354.49175061  .00014042  00000-0  94088-3 0  3549
2 48359  53.0557  75.8345 0001426  83.9609  37.9127 15.06382580    14
STARLINK-2622           
1 48360C 21038H   21354.48774671  .00013839  00000-0  92714-3 0  3549
2 48360  53.0571  75.8444 0001421  82.0609  38.0815 15.06387471    17
STARLINK-2591           
1 48361C 21038J   21354.50298411  .00014697  00000-0  98474-3 0  3548
2 48361  53.0462  75.8123 0001307  83.7911 139.0334 15.06383003    13
STARLINK-2578           
1 48362C 21038K   21354.49981118 -.00001848  00000-0 -12380-3 0  3548
2 48362  53.0606  75.7771 0001408  81.5478 349.1619 15.06407755    19
STARLINK-2626           
1 48363C 21038L   21354.49877675  .00011555  00000-0  77414-3 0  3544
2 48363  53.0556  70.7958 0001536  75.6950 251.7699 15.06390711    16
STARLINK-2611           
1 48364C 21038M   21354.49360094  .00012979  00000-0  86958-3 0  3541
2 48364  53.0561  70.8224 0001464  84.5682 239.9562 15.06386335    15
STARLINK-2608           
1 48365C 21038N   21354.49321081 -.00009809  00000-0 -65700-3 0  3547
2 48365  53.0559  70.8326 0001201  81.8811 355.3425 15.06421491    13
